NORAD_CAT_ID,OBJECT_NAME,OBJECT_TYPE,EPOCH,MEAN_MOTION,ECCENTRICITY,INCLINATION,RA_OF_ASC_NODE,ARG_OF_PERICENTER,MEAN_ANOMALY,BSTAR,MEAN_MOTION_DOT,MEAN_MOTION_DDOT,TLE_LINE0,TLE_LINE1,TLE_LINE2,SEMIMAJOR_AXIS,PERIOD,APOGEE,PERIGEE,DECAYED
55310.0,STARLINK-5309,PAYLOAD,2024-05-27 12:51:45,14.98329152,0.0002989,69.9993,206.3272,266.6595,93.4222,4.933e-05,4.96e-06,0.0,0 STARLINK-5309,1 55310U 23010AT  24148.53594405  .00000496  00000-0  49330-4 0  9996,2 55310  69.9993 206.3272 0002989 266.6595  93.4222 14.98329152 76234,6950.196,96.107,574.138,569.983,0.0
55310.0,STARLINK-5309,PAYLOAD,2024-05-28 04:53:05,14.98332274,0.0003007,69.9994,204.6443,266.0147,94.0668,4.4072e-05,4.33e-06,0.0,0 STARLINK-5309,1 55310U 23010AT  24149.20354141  .00000433  00000-0  44072-4 0  9991,2 55310  69.9994 204.6443 0003007 266.0147  94.0668 14.98332274 76011,6950.186,96.107,574.141,569.961,0.0
55310.0,STARLINK-5309,PAYLOAD,2024-05-28 12:53:46,14.98331601,0.0003041,69.9994,203.8028,266.4071,93.6741,2.6915e-05,2.28e-06,0.0,0 STARLINK-5309,1 55310U 23010AT  24149.53734164  .00000228  00000-0  26915-4 0  9992,2 55310  69.9994 203.8028 0003041 266.4071  93.6741 14.98331601 76389,6950.188,96.107,574.166,569.939,0.0
55310.0,STARLINK-5309,PAYLOAD,2024-05-29 04:55:06,14.98331043,0.0003164,69.999,202.1194,268.8174,91.2622,5.7242e-05,5.9e-06,0.0,0 STARLINK-5309,1 55310U 23010AT  24150.20494026  .00000590  00000-0  57242-4 0  9997,2 55310  69.9990 202.1194 0003164 268.8174  91.2622 14.98331043 76165,6950.19,96.107,574.254,569.856,0.0
55310.0,STARLINK-5309,PAYLOAD,2024-05-29 12:55:47,14.98331438,0.0003177,69.999,201.2779,268.5483,91.5312,5.6158e-05,5.77e-06,0.0,0 STARLINK-5309,1 55310U 23010AT  24150.53874007  .00000577  00000-0  56158-4 0  9994,2 55310  69.9990 201.2779 0003177 268.5483  91.5312 14.98331438 76536,6950.188,96.107,574.262,569.845,0.0
55310.0,STARLINK-5309,PAYLOAD,2024-05-30 04:57:07,14.9833287,0.0003176,69.9989,199.5947,267.2644,92.8152,4.7795e-05,4.77e-06,0.0,0 STARLINK-5309,1 55310U 23010AT  24151.20633882  .00000477  00000-0  47795-4 0  9999,2 55310  69.9989 199.5947 0003176 267.2644  92.8152 14.98332870 76317,6950.184,96.107,574.256,569.842,0.0
55310.0,STARLINK-5309,PAYLOAD,2024-05-30 12:57:47,14.98332991,0.0003186,69.9989,198.7533,267.169,92.9105,4.6439e-05,4.61e-06,0.0,0 STARLINK-5309,1 55310U 23010AT  24151.54013868  .00000461  00000-0  46439-4 0  9999,2 55310  69.9989 198.7533 0003186 267.1690  92.9105 14.98332991 76683,6950.184,96.107,574.263,569.834,0.0
55310.0,STARLINK-5309,PAYLOAD,2024-05-31 04:59:08,14.98332512,0.000316,69.9989,197.0702,266.8751,93.2046,4.7444e-05,4.73e-06,0.0,0 STARLINK-5309,1 55310U 23010AT  24152.20773787  .00000473  00000-0  47444-4 0  9996,2 55310  69.9989 197.0702 0003160 266.8751  93.2046 14.98332512 76462,6950.185,96.107,574.246,569.854,0.0
55310.0,STARLINK-5309,PAYLOAD,2024-05-31 12:59:48,14.98334087,0.000314,69.9988,196.2286,266.5285,93.5515,6.3184e-05,6.61e-06,0.0,0 STARLINK-5309,1 55310U 23010AT  24152.54153603  .00000661  00000-0  63184-4 0  9990,2 55310  69.9988 196.2286 0003140 266.5285  93.5515 14.98334087 76830,6950.18,96.107,574.228,569.863,0.0
55310.0,STARLINK-5309,PAYLOAD,2024-06-01 05:01:09,14.98327185,0.0003222,69.9985,194.5441,270.5514,89.5276,-1.8719e-05,-3.16e-06,0.0,0 STARLINK-5309,1 55310U 23010AT  24153.20914201 -.00000316  00000-0 -18719-4 0  9996,2 55310  69.9985 194.5441 0003222 270.5514  89.5276 14.98327185 76618,6950.202,96.107,574.306,569.827,0.0
55310.0,STARLINK-5309,PAYLOAD,2024-06-01 13:01:50,14.98327684,0.0003227,69.9985,193.7026,270.5207,89.5582,-9.5211e-06,-2.07e-06,0.0,0 STARLINK-5309,1 55310U 23010AT  24153.54294200 -.00000207  00000-0 -95211-5 0  9995,2 55310  69.9985 193.7026 0003227 270.5207  89.5582 14.98327684 76986,6950.2,96.107,574.308,569.822,0.0
55310.0,STARLINK-5309,PAYLOAD,2024-06-02 05:03:10,14.9833164,0.000322,69.9984,192.0193,270.7981,89.2809,4.0503e-05,3.9e-06,0.0,0 STARLINK-5309,1 55310U 23010AT  24154.21053867  .00000390  00000-0  40503-4 0  9996,2 55310  69.9984 192.0193 0003220 270.7981  89.2809 14.98331640 76768,6950.188,96.107,574.291,569.815,0.0
55310.0,STARLINK-5309,PAYLOAD,2024-06-02 11:27:42,14.98331215,0.000326,69.9983,191.346,271.1756,88.9029,2.2744e-05,1.78e-06,0.0,0 STARLINK-5309,1 55310U 23010AT  24154.47757948  .00000178  00000-0  22744-4 0  9996,2 55310  69.9983 191.3460 0003260 271.1756  88.9029 14.98331215 77124,6950.189,96.107,574.32,569.788,0.0
55310.0,STARLINK-5309,PAYLOAD,2024-06-03 05:05:11,14.9833081,0.0003351,69.9981,189.4944,269.6204,90.4571,9.1929e-05,1.004e-05,0.0,0 STARLINK-5309,1 55310U 23010AT  24155.21193773  .00001004  00000-0  91929-4 0  9999,2 55310  69.9981 189.4944 0003351 269.6204  90.4571 14.98330810 76914,6950.19,96.107,574.384,569.726,0.0
55310.0,STARLINK-5309,PAYLOAD,2024-06-03 11:29:43,14.983324,0.000334,69.9983,188.8213,268.5755,91.5022,0.00010533,1.164e-05,0.0,0 STARLINK-5309,1 55310U 23010AT  24155.47897642  .00001164  00000-0  10533-3 0  9991,2 55310  69.9983 188.8213 0003340 268.5755  91.5022 14.98332400 77275,6950.185,96.107,574.372,569.729,0.0
55310.0,STARLINK-5309,PAYLOAD,2024-06-03 19:30:23,14.98332825,0.0003367,69.9983,187.9796,269.3453,90.732,8.1469e-05,8.79e-06,0.0,0 STARLINK-5309,1 55310U 23010AT  24155.81277621  .00000879  00000-0  81469-4 0  9997,2 55310  69.9983 187.9796 0003367 269.3453  90.7320 14.98332825 77323,6950.184,96.107,574.389,569.709,0.0
55310.0,STARLINK-5309,PAYLOAD,2024-06-04 11:31:44,14.98333318,0.0003309,69.9984,186.297,269.6556,90.4224,5.2408e-05,5.32e-06,0.0,0 STARLINK-5309,1 55310U 23010AT  24156.48037624  .00000532  00000-0  52408-4 0  9995,2 55310  69.9984 186.2970 0003309 269.6556  90.4224 14.98333318 77107,6950.183,96.107,574.347,569.748,0.0
55310.0,STARLINK-5309,PAYLOAD,2024-06-04 19:32:24,14.98332588,0.00034,69.9981,185.4544,269.9624,90.1145,2.9094e-05,2.54e-06,0.0,0 STARLINK-5309,1 55310U 23010AT  24156.81417623  .00000254  00000-0  29094-4 0  9999,2 55310  69.9981 185.4544 0003400 269.9624  90.1145 14.98332588 77470,6950.185,96.107,574.413,569.687,0.0
55310.0,STARLINK-5309,PAYLOAD,2024-06-05 11:33:45,14.98333094,0.0003404,69.9981,183.7713,269.9512,90.1257,7.116e-06,-8e-08,0.0,0 STARLINK-5309,1 55310U 23010AT  24157.48177528 -.00000008  00000-0  71160-5 0  9990,2 55310  69.9981 183.7713 0003404 269.9512  90.1257 14.98333094 77252,6950.183,96.107,574.414,569.682,0.0
55310.0,STARLINK-5309,PAYLOAD,2024-06-05 19:34:25,14.98331074,0.000337,69.9983,182.9294,270.0152,90.0621,-3.8025e-06,-1.38e-06,0.0,0 STARLINK-5309,1 55310U 23010AT  24157.81557647 -.00000138  00000-0 -38025-5 0  9999,2 55310  69.9983 182.9294 0003370 270.0152  90.0621 14.98331074 77625,6950.19,96.107,574.397,569.712,0.0
55310.0,STARLINK-5309,PAYLOAD,2024-06-06 11:35:46,14.98331571,0.0003389,69.9982,181.2463,270.0341,90.043,1.8615e-05,1.29e-06,0.0,0 STARLINK-5309,1 55310U 23010AT  24158.48317567  .00000129  00000-0  18615-4 0  9998,2 55310  69.9982 181.2463 0003389 270.0341  90.0430 14.98331571 77400,6950.188,96.107,574.408,569.698,0.0
55310.0,STARLINK-5309,PAYLOAD,2024-06-07 08:25:31,14.98329328,0.0003034,69.9987,179.0582,266.9888,93.0924,8.9032e-05,9.69e-06,0.0,0 STARLINK-5309,1 55310U 23010AT  24159.35105512  .00000969  00000-0  89032-4 0  9993,2 55310  69.9987 179.0582 0003034 266.9888  93.0924 14.98329328 77856,6950.195,96.107,574.169,569.951,0.0
55310.0,STARLINK-5309,PAYLOAD,2024-06-08 05:15:15,14.98331134,0.0003404,69.9991,176.8701,270.4864,89.5904,7.5964e-05,8.13e-06,0.0,0 STARLINK-5309,1 55310U 23010AT  24160.21893355  .00000813  00000-0  75964-4 0  9996,2 55310  69.9991 176.8701 0003404 270.4864  89.5904 14.98331134 77669,6950.189,96.107,574.42,569.689,0.0
55310.0,STARLINK-5309,PAYLOAD,2024-06-08 11:39:48,14.98332337,0.0003382,69.9991,176.1969,273.1435,86.9337,8.4715e-05,9.18e-06,0.0,0 STARLINK-5309,1 55310U 23010AT  24160.48597255  .00000918  00000-0  84715-4 0  9995,2 55310  69.9991 176.1969 0003382 273.1435  86.9337 14.98332337 78025,6950.186,96.107,574.401,569.7,0.0
55310.0,STARLINK-5309,PAYLOAD,2024-06-08 18:04:20,14.98341946,0.0003267,69.9992,175.5235,271.1314,88.9471,-0.00015221,-1.909e-05,0.0,0 STARLINK-5309,1 55310U 23010AT  24160.75301094 -.00001909  00000-0 -15221-3 0  9997,2 55310  69.9992 175.5235 0003267 271.1314  88.9471 14.98341946 78062,6950.156,96.106,574.292,569.75,0.0
55310.0,STARLINK-5309,PAYLOAD,2024-06-09 10:05:41,14.98329042,0.0003305,69.9993,173.8408,269.8958,90.1822,-1.371e-06,-1.09e-06,0.0,0 STARLINK-5309,1 55310U 23010AT  24161.42061626 -.00000109  00000-0 -13710-5 0  9990,2 55310  69.9993 173.8408 0003305 269.8958  90.1822 14.98329042 77840,6950.196,96.107,574.358,569.764,0.0
55310.0,STARLINK-5309,PAYLOAD,2024-06-09 18:06:21,14.98330453,0.00033,69.9993,172.9992,269.4357,90.6424,1.8671e-05,1.3e-06,0.0,0 STARLINK-5309,1 55310U 23010AT  24161.75441486  .00000130  00000-0  18671-4 0  9994,2 55310  69.9993 172.9992 0003300 269.4357  90.6424 14.98330453 78215,6950.191,96.107,574.35,569.763,0.0
55310.0,STARLINK-5309,PAYLOAD,2024-06-10 10:07:41,14.98331424,0.0003291,69.9992,171.3157,268.47,91.6082,2.4204e-05,1.96e-06,0.0,0 STARLINK-5309,1 55310U 23010AT  24162.42201355  .00000196  00000-0  24204-4 0  9999,2 55310  69.9992 171.3157 0003291 268.4700  91.6082 14.98331424 77994,6950.188,96.107,574.341,569.766,0.0
55310.0,STARLINK-5309,PAYLOAD,2024-06-10 18:08:22,14.98334059,0.0003419,69.999,170.4736,265.7307,94.3461,-2.3451e-05,-3.73e-06,0.0,0 STARLINK-5309,1 55310U 23010AT  24162.75581210 -.00000373  00000-0 -23451-4 0  9998,2 55310  69.9990 170.4736 0003419 265.7307  94.3461 14.98334059 78360,6950.18,96.107,574.422,569.669,0.0
55310.0,STARLINK-5309,PAYLOAD,2024-06-11 10:09:42,14.98329753,0.0003339,69.9989,168.7906,268.6877,91.3899,6.8923e-05,7.29e-06,0.0,0 STARLINK-5309,1 55310U 23010AT  24163.42341344  .00000729  00000-0  68923-4 0  9991,2 55310  69.9989 168.7906 0003339 268.6877  91.3899 14.98329753 78460,6950.194,96.107,574.379,569.738,0.0
